     2.100          NAVIGATION                              RINEX VERSION / TYPE
fic2rin                                 12/27/2016 00:03:40 PGM / RUN BY / DATE
                                                            END OF HEADER
21 16 12 26 22  0  0.0 -.527500640601D-03  .125055521494D-11  .000000000000D+00
     .960000000000D+02 -.131250000000D+01  .500377985609D-08  .546947645468D+00
     .167638063431D-07  .235962740844D-01  .102370977402D-04  .515376805496D+04
     .165600000000D+06 -.378116965294D-06  .200853649104D+00 -.987201929092D-07
     .938609689410D+00  .178750000000D+03 -.173017352586D+01 -.854107005557D-08
     .346443002170D-09  .100000000000D+01  .192900000000D+04  .000000000000D+00
     .485000000000D+01  .000000000000D+00 -.977888703346D-08  .960000000000D+02
     .158406000000D+06  .400000000000D+01
22 16 12 26 22  0  0.0  .150384847075D-03 -.111413100967D-10  .000000000000D+00
     .280000000000D+02 -.937500000000D+00  .575666835977D-08 -.242481811500D+01
    -.217929482460D-06  .729487207718D-02  .436417758465D-05  .515362527275D+04
     .165600000000D+06  .104308128357D-06  .124208251989D+01  .279396772385D-07
     .922817695015D+00  .270000000000D+03 -.183087608267D+01 -.849249660371D-08
     .154649298907D-09  .100000000000D+01  .192900000000D+04  .000000000000D+00
     .240000000000D+01  .000000000000D+00 -.176951289177D-07  .280000000000D+02
     .158406000000D+06  .400000000000D+01
23 16 12 26 22  0  0.0 -.200897455215D-03 -.113686837722D-11  .000000000000D+00
     .270000000000D+02  .500000000000D+01  .478912805784D-08 -.311698813139D+01
     .169500708580D-06  .111545630498D-01  .103712081909D-04  .515356689072D+04
     .165600000000D+06 -.391155481339D-07  .232351570618D+01 -.182539224625D-06
     .944881396229D+00  .173093750000D+03 -.251796179019D+01 -.782568311397D-08
    -.477877048354D-09  .100000000000D+01  .192900000000D+04  .000000000000D+00
     .240000000000D+01  .000000000000D+00 -.200234353542D-07  .270000000000D+02
     .158406000000D+06  .400000000000D+01
24 16 12 26 22  0  0.0 -.281305983663D-04 -.568434188608D-12  .000000000000D+00
     .740000000000D+02  .117937500000D+03  .468055210664D-08  .252401918828D+01
     .615417957306D-05  .526730157435D-02  .825151801109D-05  .515371785355D+04
     .165600000000D+06 -.173225998878D-06 -.293566842948D+01 -.428408384323D-07
     .947468568315D+00  .212625000000D+03  .418234234849D+00 -.805676416800D-08
     .142505935944D-09  .100000000000D+01  .192900000000D+04  .000000000000D+00
     .240000000000D+01  .000000000000D+00  .232830643654D-08  .740000000000D+02
     .158406000000D+06  .400000000000D+01
25 16 12 26 22  0  0.0 -.306825619191D-03 -.682121026330D-11  .000000000000D+00
     .860000000000D+02  .825000000000D+01  .442411285349D-08  .488489104012D+00
     .467523932457D-06  .586516037583D-02  .117532908916D-05  .515365621567D+04
     .165600000000D+06  .111758708954D-07 -.185741721291D+01  .447034835815D-07
     .977695178323D+00  .362812500000D+03  .751786033260D+00 -.838142054838D-08
    -.125362364703D-09  .100000000000D+01  .192900000000D+04  .000000000000D+00
     .240000000000D+01  .000000000000D+00  .558793544769D-08  .860000000000D+02
     .158406000000D+06  .400000000000D+01
26 16 12 26 22  0  0.0 -.513785518706D-03 -.261479726760D-11  .000000000000D+00
     .930000000000D+02 -.318750000000D+01  .480948604868D-08  .125342998045D+00
    -.292435288429D-06  .146200950257D-02  .101700425148D-05  .515362847900D+04
     .165600000000D+06  .186264514923D-08 -.187016405554D+01 -.298023223877D-07
     .959565638332D+00  .358468750000D+03 -.174584457789D+00 -.849428239239D-08
    -.120719314158D-09  .100000000000D+01  .192900000000D+04  .000000000000D+00
     .340000000000D+01  .000000000000D+00  .745058059692D-08  .930000000000D+02
     .158406000000D+06  .400000000000D+01
27 16 12 26 22  0  0.0  .184990465641D-03  .545696821064D-11  .000000000000D+00
     .820000000000D+02 -.117125000000D+03  .391802034413D-08 -.181694841645D+01
    -.601820647717D-05  .408644671552D-02  .845454633236D-05  .515366337013D+04
     .165600000000D+06 -.577419996262D-07 -.816702077983D+00 -.316649675369D-07
     .973589659654D+00  .223312500000D+03  .289820957966D+00 -.777175229611D-08
    -.166435504135D-09  .100000000000D+01  .192900000000D+04  .000000000000D+00
     .240000000000D+01  .000000000000D+00  .139698386192D-08  .820000000000D+02
     .158406000000D+06  .400000000000D+01
28 16 12 26 22  0  0.0  .577375292778D-03  .284217094304D-11  .000000000000D+00
     .160000000000D+02 -.953125000000D+01  .431232248268D-08 -.103323659969D+01
    -.219792127609D-06  .201309858821D-01  .171735882759D-05  .515363434982D+04
     .165600000000D+06 -.309199094772D-06 -.178036983516D+01  .286847352982D-06
     .988865655047D+00  .364687500000D+03 -.158800183067D+01 -.849071081504D-08
    -.120719314158D-09  .100000000000D+01  .192900000000D+04  .000000000000D+00
     .240000000000D+01  .000000000000D+00 -.111758708954D-07  .160000000000D+02
     .158406000000D+06  .400000000000D+01
29 16 12 26 22  0  0.0  .636612996459D-03 -.216004991671D-11  .000000000000D+00
     .880000000000D+02 -.108343750000D+03  .387873299337D-08  .376879900435D+00
    -.572018325329D-05  .546980998479D-03  .807456672192D-05  .515370395088D+04
     .165600000000D+06  .186264514923D-07 -.755618213000D+00  .931322574615D-08
     .979760192522D+00  .234187500000D+03 -.198255965951D+00 -.776818071876D-08
    -.190365072327D-09  .100000000000D+01  .192900000000D+04  .000000000000D+00
     .340000000000D+01  .000000000000D+00 -.102445483208D-07  .880000000000D+02
     .158406000000D+06  .400000000000D+01
30 16 12 26 22  0  0.0  .159674324095D-03  .454747350886D-12  .000000000000D+00
     .880000000000D+02  .123718750000D+03  .471269630272D-08  .161196068082D+01
     .653415918350D-05  .235206668731D-02  .767596065998D-05  .515374154091D+04
     .165600000000D+06  .689178705215D-07 -.284377065433D+01 -.186264514923D-07
     .950150553584D+00  .224687500000D+03  .312003916993D+01 -.822962851135D-08
     .141077305007D-09  .100000000000D+01  .192900000000D+04  .000000000000D+00
     .240000000000D+01  .000000000000D+00  .372529029846D-08  .880000000000D+02
     .158406000000D+06  .400000000000D+01
31 16 12 26 22  0  0.0  .228748656809D-03 -.227373675443D-11  .000000000000D+00
     .800000000000D+02  .120375000000D+03  .425374861428D-08  .144225783437D+01
     .645965337753D-05  .855712429620D-02  .704079866409D-05  .515362539101D+04
     .165600000000D+06  .875443220139D-07 -.287458275341D+01  .122934579849D-06
     .969186478118D+00  .243937500000D+03 -.323937961614D+00 -.789532887214D-08
     .214294640518D-10  .100000000000D+01  .192900000000D+04  .000000000000D+00
     .240000000000D+01  .000000000000D+00 -.135041773319D-07  .800000000000D+02
     .158406000000D+06  .400000000000D+01
32 16 12 26 22  0  0.0 -.256821047515D-03 -.154614099301D-10  .000000000000D+00
     .720000000000D+02  .346875000000D+01  .454483216765D-08 -.108702403347D+01
     .206753611565D-06  .617849873379D-03  .998936593533D-05  .515367920685D+04
     .165600000000D+06  .242143869400D-07  .232271525592D+01  .204890966415D-07
     .958525987803D+00  .187000000000D+03 -.271008779730D+01 -.784961268216D-08
    -.451447376024D-09  .100000000000D+01  .192900000000D+04  .000000000000D+00
     .240000000000D+01  .000000000000D+00  .465661287308D-09  .720000000000D+02
     .158406000000D+06  .400000000000D+01
 2 16 12 26 21 59 44.0  .504021998495D-03 -.625277607469D-11  .000000000000D+00
     .000000000000D+00 -.204062500000D+02  .446947188573D-08  .269654480539D+01
    -.104866921902D-05  .163590899901D-01  .101737678051D-04  .515370458031D+04
     .165584000000D+06  .108033418655D-06  .190406965729D+00 -.212341547012D-06
     .945319654301D+00  .170750000000D+03 -.205027745422D+01 -.761353141986D-08
     .530379235281D-09  .100000000000D+01  .192900000000D+04  .000000000000D+00
     .240000000000D+01  .000000000000D+00 -.200234353542D-07  .000000000000D+00
     .163536000000D+06  .400000000000D+01
21 16 12 26 21 59 44.0 -.527501106262D-03  .125055521494D-11  .000000000000D+00
     .170000000000D+02 -.131250000000D+01  .500377985609D-08  .544613859570D+00
     .167638063431D-07  .235962710576D-01  .102370977402D-04  .515376806641D+04
     .165584000000D+06 -.378116965294D-06  .200853815876D+00 -.987201929092D-07
     .938609689410D+00  .178750000000D+03 -.173017349514D+01 -.854107005557D-08
     .346443002170D-09  .100000000000D+01  .192900000000D+04  .000000000000D+00
     .240000000000D+01  .000000000000D+00 -.977888703346D-08  .170000000000D+02
     .163656000000D+06  .400000000000D+01
 2 16 12 26 23 59 44.0  .503976829350D-03 -.625277607469D-11  .000000000000D+00
     .800000000000D+01 -.207812500000D+02  .451304512930D-08 -.253648276024D+01
    -.102818012238D-05  .163592776516D-01  .101663172245D-04  .515370421791D+04
     .172784000000D+06  .214204192162D-06  .190351553318D+00 -.104308128357D-06
     .945323650993D+00  .172218750000D+03 -.205027305815D+01 -.764424698500D-08
     .627526138983D-09  .100000000000D+01  .192900000000D+04  .000000000000D+00
     .240000000000D+01  .000000000000D+00 -.200234353542D-07  .800000000000D+01
     .165606000000D+06  .400000000000D+01
21 16 12 26 23 59 44.0 -.527492258698D-03  .125055521494D-11  .000000000000D+00
     .330000000000D+02 -.201875000000D+02  .479269963518D-08  .159465031058D+01
    -.143796205521D-05  .235978453420D-01  .998191535473D-05  .515377301025D+04
     .172784000000D+06 -.135973095894D-06  .200792035383D+00 -.659376382828D-06
     .938614401469D+00  .178187500000D+03 -.173008502517D+01 -.807390773924D-08
     .509664086698D-09  .100000000000D+01  .192900000000D+04  .000000000000D+00
     .240000000000D+01  .000000000000D+00 -.977888703346D-08  .330000000000D+02
     .165606000000D+06  .400000000000D+01
